     3.04           N: GNSS NAV DATA    M: MIXED            RINEX VERSION / TYPE
ssrcrin-15.6.1x                         20250101 140000 UTC PGM / RUN BY / DATE 
    18                                                      LEAP SECONDS        
                                                            END OF HEADER       
E29 2025 01 01 13 50 00-5.847972352058E-05-3.169020601490E-12 0.000000000000E+00
     7.000000000000E+00-1.859062500000E+02 2.799759478363E-09-5.124186431276E-01
    -8.475035429001E-06 3.149163676426E-04 1.181289553642E-05 5.440619356155E+03
     3.090000000000E+05 0.000000000000E+00 3.156991229814E-01 2.980232238770E-08
     9.569343958386E-01 8.450000000000E+01 2.648788421081E+00-5.282362888760E-09
     3.425142670940E-10 2.580000000000E+02 2.347000000000E+03
     3.120000000000E+00 0.000000000000E+00-5.355104804039E-09 0.000000000000E+00
     3.097400000000E+05
E02 2025 01 01 13 50 00 1.867500250228E-04 2.870592652471E-12 0.000000000000E+00
     7.000000000000E+00-2.437500000000E+01 3.384426689242E-09 1.724069201740E+00
    -1.315027475357E-06 5.100545240566E-04 6.571412086487E-06 5.440613626480E+03
     3.090000000000E+05-3.352761268616E-08 2.416753907821E+00 5.029141902924E-08
     9.646368453166E-01 2.005000000000E+02 6.899535784674E-01-5.479513958036E-09
    -6.986005280875E-10 2.580000000000E+02 2.347000000000E+03
     3.120000000000E+00 0.000000000000E+00-3.958120942116E-09 0.000000000000E+00
     3.097900000000E+05
E19 2025 01 01 13 00 00 1.170409435872E-03 5.609024356090E-11 0.000000000000E+00
     2.000000000000E+00-1.610625000000E+02 2.712255833485E-09-3.109971685158E+00
    -7.586553692818E-06 1.493355957791E-04 1.125410199165E-05 5.440629894257E+03
     3.060000000000E+05 1.862645149231E-08 3.191401301303E-01 1.117587089539E-08
     9.691148946110E-01 1.029062500000E+02-2.105774805173E+00-5.183073038654E-09
     3.310852195998E-10 2.580000000000E+02 2.347000000000E+03
     3.120000000000E+00 0.000000000000E+00-6.752088665962E-09 0.000000000000E+00
     3.097900000000E+05
S21 2025 01 01 14 03 12 0.000000000000E+00 0.000000000000E+00 3.097950000000E+05
     4.200468400000E+04 0.000000000000E+00 0.000000000000E+00 6.300000000000E+01
    -3.674932960000E+03 0.000000000000E+00 0.000000000000E+00 3.276700000000E+04
     0.000000000000E+00 0.000000000000E+00 0.000000000000E+00 1.570000000000E+02
S36 2025 01 01 14 03 12 0.000000000000E+00 0.000000000000E+00 3.098070000000E+05
     4.200368800000E+04 0.000000000000E+00 0.000000000000E+00 6.300000000000E+01
     3.674846960000E+03 0.000000000000E+00 0.000000000000E+00 3.276700000000E+04
     0.000000000000E+00 0.000000000000E+00 0.000000000000E+00 2.270000000000E+02
S23 2025 01 01 14 04 00 0.000000000000E+00 0.000000000000E+00 3.098540000000E+05
     3.866796400000E+04 0.000000000000E+00 0.000000000000E+00 6.300000000000E+01
     1.681330800000E+04 0.000000000000E+00 0.000000000000E+00 3.276700000000E+04
     0.000000000000E+00 0.000000000000E+00 0.000000000000E+00 1.330000000000E+02
S36 2025 01 01 14 05 52 0.000000000000E+00 0.000000000000E+00 3.099550000000E+05
     4.200368800000E+04 0.000000000000E+00 0.000000000000E+00 6.300000000000E+01
     3.674846960000E+03 0.000000000000E+00 0.000000000000E+00 3.276700000000E+04
     0.000000000000E+00 0.000000000000E+00 0.000000000000E+00 2.280000000000E+02
S21 2025 01 01 14 05 52 0.000000000000E+00 0.000000000000E+00 3.099650000000E+05
     4.200468400000E+04 0.000000000000E+00 0.000000000000E+00 6.300000000000E+01
    -3.674932960000E+03 0.000000000000E+00 0.000000000000E+00 3.276700000000E+04
     0.000000000000E+00 0.000000000000E+00 0.000000000000E+00 1.580000000000E+02
S23 2025 01 01 14 06 08 0.000000000000E+00 0.000000000000E+00 3.099770000000E+05
     3.866796400000E+04 0.000000000000E+00 0.000000000000E+00 6.300000000000E+01
     1.681330800000E+04 0.000000000000E+00 0.000000000000E+00 3.276700000000E+04
     0.000000000000E+00 0.000000000000E+00 0.000000000000E+00 1.340000000000E+02
S36 2025 01 01 14 08 16 0.000000000000E+00 0.000000000000E+00 3.100990000000E+05
     4.200368800000E+04 0.000000000000E+00 0.000000000000E+00 6.300000000000E+01
     3.674846960000E+03 0.000000000000E+00 0.000000000000E+00 3.276700000000E+04
     0.000000000000E+00 0.000000000000E+00 0.000000000000E+00 2.290000000000E+02
S23 2025 01 01 14 08 16 0.000000000000E+00 0.000000000000E+00 3.101020000000E+05
     3.866796400000E+04 0.000000000000E+00 0.000000000000E+00 6.300000000000E+01
     1.681330800000E+04 0.000000000000E+00 0.000000000000E+00 3.276700000000E+04
     0.000000000000E+00 0.000000000000E+00 0.000000000000E+00 1.350000000000E+02
C05 2025 01 01 14 00 00 1.735710538924E-04 2.866862303108E-11 0.000000000000E+00
     1.000000000000E+00-7.489062500000E+01 1.372557172516E-09 1.174649809885E+00
    -2.587214112282E-06 1.275430782698E-03 2.751406282187E-05 6.493454694748E+03
     3.096000000000E+05-2.458691596985E-07 2.713420702121E-01-4.656612873077E-10
     1.120314748806E-01-8.424375000000E+02-2.978929662983E+00-2.807259790781E-10
     8.636074012861E-10 0.000000000000E+00 9.910000000000E+02 0.000000000000E+00
     2.000000000000E+00 0.000000000000E+00 2.000000000000E-10-9.500000000000E-09
     3.101076000000E+05 0.000000000000E+00
S21 2025 01 01 14 08 48 0.000000000000E+00 0.000000000000E+00 3.101300000000E+05
     4.200468400000E+04 0.000000000000E+00 0.000000000000E+00 6.300000000000E+01
    -3.674932960000E+03 0.000000000000E+00 0.000000000000E+00 3.276700000000E+04
     0.000000000000E+00 0.000000000000E+00 0.000000000000E+00 1.590000000000E+02
S23 2025 01 01 14 10 24 0.000000000000E+00 0.000000000000E+00 3.102280000000E+05
     3.866796400000E+04 0.000000000000E+00 0.000000000000E+00 6.300000000000E+01
     1.681330800000E+04 0.000000000000E+00 0.000000000000E+00 3.276700000000E+04
     0.000000000000E+00 0.000000000000E+00 0.000000000000E+00 1.360000000000E+02
S36 2025 01 01 14 10 40 0.000000000000E+00 0.000000000000E+00 3.102430000000E+05
     4.200368800000E+04 0.000000000000E+00 0.000000000000E+00 6.300000000000E+01
     3.674846960000E+03 0.000000000000E+00 0.000000000000E+00 3.276700000000E+04
     0.000000000000E+00 0.000000000000E+00 0.000000000000E+00 2.300000000000E+02
E34 2025 01 01 14 00 00-1.551063032821E-04-2.188471626141E-12 0.000000000000E+00
     8.000000000000E+00 1.637812500000E+02 2.538677174666E-09 2.550804140145E+00
     7.737427949905E-06 1.914318418130E-04 2.421438694000E-07 5.440604902267E+03
     3.096000000000E+05 5.587935447693E-09-1.777763054121E+00 9.313225746155E-08
     9.995117326928E-01 3.536562500000E+02-2.151490404131E+00-5.582375385485E-09
     3.182275411687E-10 5.170000000000E+02 2.347000000000E+03
     3.120000000000E+00 0.000000000000E+00 6.984919309616E-10 2.561137080193E-09
     3.102650000000E+05
E29 2025 01 01 14 00 00-5.848024738953E-05-3.169020601490E-12 0.000000000000E+00
     8.000000000000E+00-1.847187500000E+02 2.804759686642E-09-4.379036921493E-01
    -8.417293429375E-06 3.146819071844E-04 1.188740134239E-05 5.440618886948E+03
     3.096000000000E+05 0.000000000000E+00 3.156959513750E-01 2.793967723846E-08
     9.569346021101E-01 8.293750000000E+01 2.648658209669E+00-5.282005731026E-09
     3.428714248282E-10 5.170000000000E+02 2.347000000000E+03
     3.120000000000E+00 0.000000000000E+00-5.355104804039E-09-4.190951585770E-09
     3.102820000000E+05
E02 2025 01 01 14 00 00 1.867518876679E-04 2.870592652471E-12 0.000000000000E+00
     8.000000000000E+00-2.440625000000E+01 3.391212686192E-09 1.798330097975E+00
    -1.316890120506E-06 5.099801346660E-04 6.517395377159E-06 5.440613821030E+03
     3.096000000000E+05-4.656612873077E-08 2.416750670383E+00 5.029141902924E-08
     9.646363771828E-01 2.012812500000E+02 6.900782249394E-01-5.488800059125E-09
    -6.989576858217E-10 5.170000000000E+02 2.347000000000E+03
     3.120000000000E+00 0.000000000000E+00-3.958120942116E-09-3.958120942116E-09
     3.102850000000E+05
S21 2025 01 01 14 11 28 0.000000000000E+00 0.000000000000E+00 3.102970000000E+05
     4.200468400000E+04 0.000000000000E+00 0.000000000000E+00 6.300000000000E+01
    -3.674932960000E+03 0.000000000000E+00 0.000000000000E+00 3.276700000000E+04
     0.000000000000E+00 0.000000000000E+00 0.000000000000E+00 1.600000000000E+02
E34 2025 01 01 14 00 00-1.551082241349E-04-2.188471626141E-12 0.000000000000E+00
     8.000000000000E+00 1.637812500000E+02 2.538677174666E-09 2.550804140145E+00
     7.737427949905E-06 1.914318418130E-04 2.421438694000E-07 5.440604902267E+03
     3.096000000000E+05 5.587935447693E-09-1.777763054121E+00 9.313225746155E-08
     9.995117326928E-01 3.536562500000E+02-2.151490404131E+00-5.582375385485E-09
     3.182275411687E-10 2.580000000000E+02 2.347000000000E+03
     3.120000000000E+00 0.000000000000E+00 6.984919309616E-10 0.000000000000E+00
     3.103400000000E+05
E29 2025 01 01 14 00 00-5.848164437339E-05-3.169020601490E-12 0.000000000000E+00
     8.000000000000E+00-1.847187500000E+02 2.804759686642E-09-4.379036921493E-01
    -8.417293429375E-06 3.146819071844E-04 1.188740134239E-05 5.440618886948E+03
     3.096000000000E+05 0.000000000000E+00 3.156959513750E-01 2.793967723846E-08
     9.569346021101E-01 8.293750000000E+01 2.648658209669E+00-5.282005731026E-09
     3.428714248282E-10 2.580000000000E+02 2.347000000000E+03
     3.120000000000E+00 0.000000000000E+00-5.355104804039E-09 0.000000000000E+00
     3.103400000000E+05
E02 2025 01 01 14 00 00 1.867518294603E-04 2.870592652471E-12 0.000000000000E+00
     8.000000000000E+00-2.440625000000E+01 3.391212686192E-09 1.798330097975E+00
    -1.316890120506E-06 5.099801346660E-04 6.517395377159E-06 5.440613821030E+03
     3.096000000000E+05-4.656612873077E-08 2.416750670383E+00 5.029141902924E-08
     9.646363771828E-01 2.012812500000E+02 6.900782249394E-01-5.488800059125E-09
    -6.989576858217E-10 2.580000000000E+02 2.347000000000E+03
     3.120000000000E+00 0.000000000000E+00-3.958120942116E-09 0.000000000000E+00
     3.103400000000E+05
